// const satelliteData = [

//     /*name
// : 
// "ISS (ZARYA)             \r"
// tle1: "1 25544U 98067A   25171.56774788  .00004070  00000+0  78879-4 0  9991\r"
// tle2: "2 25544  51.6378 290.3198 0001961 257.4405 196.4094 15.50135141515682\r" */
//     {
//         name: "ISS (Zarya)",
//         id: "25544",
//         tle1: "1 25544U 98067A   24154.54727373  .00016936  00000+0  30597-3 0  9990",
//         tle2: "2 25544  51.6404  37.0503 0003084 278.7286 162.3242 15.50656932452270",
//         color: "#FFD700", // Gold
//     },
//     {
//         name: "Hubble Space Telescope (HST)",
//         id: "20580",
//         tle1: "1 20580U 90037B   25169.94317005  .00005179  00000+0  19140-3 0  9995",
//         tle2: "2 20580  28.4692  33.0120 0002579 108.2735 251.8140 15.25343733732959",
//         color: "#ADFF2F", // Green Yellow
//     },
//     {
//         name: "Starlink-1008",
//         id: "44714",
//         tle1: "1 44714C 19074B   25170.45395833 -.00031104  00000+0 -20846-2 0  1709",
//         tle2: "2 44714  53.0542 288.3303 0001274  93.0104 340.5772 15.06418297    11",
//         color: "#00BFFF", // Deep Sky Blue
//     },
//     {
//         name: "NOAA 20 (JPSS-1)",
//         id: "43013",
//         tle1: "1 43013U 17073A   25170.49559097  .00000000  00000+0  20887-4 0  9990",
//         tle2: "2 43013  98.7418 108.9450 0000265 150.8408 209.2783 14.19510559393013",
//         color: "#FF4500", // Orange Red
//     },
//     {
//         name: "TERRA",
//         id: "25994",
//         tle1: "1 25994U 99068A   25170.50371306  .00000344  00000+0  79797-4 0  9994",
//         tle2: "2 25994  97.9977 228.3879 0001048 323.8467 148.0022 14.60713919356770",
//         color: "#8A2BE2", // Blue Violet
//     },
//     {
//         name: "SENTINEL-2A",
//         id: "40697",
//         tle1: "1 40697U 15028A   25170.48738500  .00000089  00000+0  50757-4 0  9996",
//         tle2: "2 40697  98.5694 245.5381 0001255  93.0654 267.0673 14.30810340521864",
//         color: "#20B2AA", // Light Sea Green
//     },
//     {
//         name: "LANDSAT 9",
//         id: "49260",
//         tle1: "1 49260U 21088A   25170.48426145  .00000319  00000+0  80980-4 0  9990",
//         tle2: "2 49260  98.2274 240.9300 0001498  97.9798 262.1571 14.57100596198172",
//         color: "#DC143C", // Crimson
//     },
//     {
//         name: "NAVSTAR 53 (USA 175)",
//         id: "28129",
//         tle1: "1 28129U 03058A   25167.16388620 -.00000064  00000+0  00000+0 0  9992",
//         tle2: "2 28129  54.7857  36.8454 0001829 331.6281  28.4204  1.92678629157412",
//         color: "#00FA9A", // Medium Spring Green
//     },
//     {
//         name: "GSAT0101 (Galileo-PFM)",
//         id: "37846",
//         tle1: "1 37846U 11060A   25166.81935239 -.00000066  00000+0  00000+0 0  9997",
//         tle2: "2 37846  57.0949 351.6932 0003194  48.7627 311.2828  1.70475778 84872",
//         color: "#FF69B4", // Hot Pink
//     },
//     {
//         name: "CSS (TIANHE)",
//         id: "48274",
//         tle1: "1 48274U 21035A   25170.43521188  .00024633  00000+0  31024-3 0  9993",
//         tle2: "2 48274  41.4647   7.0163 0004004 139.7856 220.3279 15.59046367236504",
//         color: "#40E0D0", // Turquoise
//     },
// ];

// export default satelliteData;
